0 GENESIS 2
1 31789U 07028A   13282.76283441  .00003698  00000-0  24767-3 0  7416
2 31789 064.5107 015.8928 0038867 226.4519 276.0838 15.07944503345191
0 GENESIS 2
1 31789U 07028A   13283.53237413  .00007153  00000-0  45473-3 0  7439
2 31789 064.5104 013.4170 0038979 226.1668 133.6728 15.07945972345318
0 GENESIS 2
1 31789U 07028A   13284.07433243  .00003801  00000-0  25417-3 0  7429
2 31789 064.5108 011.6677 0038646 226.3554 195.4300 15.07953009345391
0 GENESIS 2
1 31789U 07028A   13286.40718416  .00002979  00000-0  20193-3 0  7449
2 31789 064.5110 004.1512 0038245 226.2302 259.1514 15.07968345345747
0 GENESIS 2
1 31789U 07028A   13287.46565823  .00003457  00000-0  23228-3 0  7453
2 31789 064.5109 000.7414 0038166 226.1226 245.0968 15.07974524345905
0 GENESIS 2
1 31789U 07028A   13288.59203608  .00004284  00000-0  28479-3 0  7461
2 31789 064.5112 357.1141 0038142 225.8578 239.8454 15.07985675346074
0 GENESIS 2
1 31789U 07028A   13289.66424564  .00004652  00000-0  30815-3 0  7473
2 31789 064.5109 353.6601 0038107 225.6928 300.4829 15.07992839346239
0 GENESIS 2
1 31789U 07028A   13291.16356591  .00003883  00000-0  25920-3 0  7482
2 31789 064.5104 348.8301 0038015 225.4925 159.7665 15.08005721346453
0 GENESIS 2
1 31789U 07028A   13292.44178512  .00003863  00000-0  25791-3 0  7494
2 31789 064.5100 344.7119 0037836 225.2536 258.8917 15.08014693346658
0 GENESIS 2
1 31789U 07028A   13293.49837032  .00003919  00000-0  26144-3 0  7506
2 31789 064.5098 341.3076 0037657 225.0918 234.8181 15.08021988346812
0 GENESIS 2
1 31789U 07028A   13294.50107631  .00004304  00000-0  28587-3 0  7517
2 31789 064.5097 338.0769 0037479 224.9890 278.2244 15.08027868346963
0 GENESIS 2
1 31789U 07028A   13295.69510598  .00004219  00000-0  28048-3 0  7526
2 31789 064.5096 334.2278 0037203 224.9966 280.1716 15.08036777347140
